STARLINK-36804          
1 67799C 26032C   26104.58590278 -.00085177  00000+0 -57243-3 0  1049
2 67799  97.2830 292.8337 0001357  82.3671 283.6503 15.75226267    17
STARLINK-36354          
1 67800C 26032D   26104.62756944 -.00061075  00000+0 -41050-3 0  1041
2 67800  97.2834 292.9050 0001276  73.5664 230.5696 15.75211627    19
STARLINK-36773          
1 67801C 26032E   26104.64631944 -.00277760  00000+0 -18693-2 0  1042
2 67801  97.2831 292.9044 0001279  75.2249 291.1503 15.75291845    11
STARLINK-36739          
1 67802C 26032F   26104.60604167 -.00061749  00000+0 -41503-3 0  1041
2 67802  97.2833 292.9076 0001306  89.6221 152.5130 15.75211507    12
STARLINK-36768          
1 67803C 26032G   26104.58590278 -.00069705  00000+0 -46828-3 0  1041
2 67803  97.2837 292.8554 0001334  80.6871 337.3282 15.75226505    15
STARLINK-36792          
1 67804C 26032H   26104.56854167 -.01381300  00000+0 -94051-2 0  1049
2 67804  97.2838 292.8314 0001024  74.7332 230.8368 15.75588569    16
STARLINK-36782          
1 67805C 26032J   26104.64284722 -.00058890  00000+0 -39585-3 0  1049
2 67805  97.2833 292.9691 0001307  89.5214  57.1793 15.75208131    14
STARLINK-36389          
1 67806C 26032K   26104.58381944 -.00062372  00000+0 -41916-3 0  1048
2 67806  97.2838 292.8741 0001323  80.4212  15.7852 15.75215222    16
STARLINK-36382          
1 67807C 26032L   26104.62131944 -.02159900  00000+0 -19031-1 0  1044
2 67807  97.2843 292.9130 0001378  78.9448 229.4299 15.69844712    13
STARLINK-36811          
1 67808C 26032M   26104.64215278 -.00122310  00000+0 -82191-3 0  1042
2 67808  97.2833 292.9652 0001399  85.9409  48.8203 15.75246915    16
STARLINK-36795          
1 67809C 26032N   26104.61715278 -.00080048  00000+0 -53789-3 0  1047
2 67809  97.2840 292.8968 0001266  78.1558 178.9431 15.75226978    11
STARLINK-36807          
1 67810C 26032P   26104.56923611 -.00058403  00000+0 -39237-3 0  1047
2 67810  97.2833 292.8859 0001437  72.1713   3.3875 15.75219867    13
STARLINK-36733          
1 67811C 26032Q   26104.56715278 -.00045149  00000+0 -30323-3 0  1046
2 67811  97.2832 292.9064 0001350  84.4355  33.3019 15.75220313    15
STARLINK-36377          
1 67812C 26032R   26104.59770833 -.02156700  00000+0 -28340-1 0  1040
2 67812  97.2839 292.9000 0001773  82.0670 118.9862 15.59624779    18
STARLINK-36732          
1 67813C 26032S   26104.58729167 -.02153900  00000+0 -20562-1 0  1041
2 67813  97.2841 292.9114 0001887  80.9633 113.7737 15.67860131    17
STARLINK-36767          
1 67814C 26032T   26104.59354167 -.00050689  00000+0 -34056-3 0  1040
2 67814  97.2840 292.8791 0001106  78.6832  62.6106 15.75215805    19
STARLINK-36797          
1 67815C 26032U   26104.59145833 -.02164200  00000+0 -29063-1 0  1046
2 67815  97.2842 292.8513 0001805  68.5640 359.1894 15.59047329    19
STARLINK-36343          
1 67816C 26032V   26104.57201389 -.02397300  00000+0 -16766-1 0  1049
2 67816  97.2836 292.9269 0001902  94.1539  87.1395 15.75488227    10
STARLINK-36756          
1 67817C 26032W   26104.59631944 -.00113030  00000+0 -75888-3 0  1042
2 67817  97.2834 292.9252 0001386  76.9524 180.0387 15.75262949    14
STARLINK-36346          
1 67818C 26032X   26104.62131944 -.02184000  00000+0 -17347-1 0  1043
2 67818  97.2840 292.9873 0001967  72.8379  48.3397 15.72370630    10
STARLINK-36788          
1 67819C 26032Y   26104.59284722 -.00051366  00000+0 -34525-3 0  1048
2 67819  97.2837 292.8952 0001117  79.4481  95.9158 15.75206043    10
STARLINK-36353          
1 67820C 26032Z   26104.57895833 -.00051260  00000+0 -34446-3 0  1044
2 67820  97.2834 292.8899 0001308  84.7311  33.9181 15.75211350    17
STARLINK-36644          
1 67821C 26033A   26104.60256944 -.00027195  00000+0 -98493-3 0  1046
2 67821  43.0012  64.1543 0000802 259.0740 233.1019 15.27594420    15
STARLINK-36643          
1 67822C 26033B   26104.58659722 -.00035232  00000+0 -12762-2 0  1040
2 67822  43.0037  64.5963 0001450 271.5286 351.2117 15.27593966    12
STARLINK-36646          
1 67823C 26033C   26104.61993056 -.00026322  00000+0 -95332-3 0  1041
2 67823  43.0013  64.1422 0000733 258.3977 293.9925 15.27594625    18
STARLINK-36647          
1 67824C 26033D   26104.61090278 -.00029293  00000+0 -10612-2 0  1043
2 67824  43.0010  64.0602 0001409 271.7363 287.5604 15.27588025    14
STARLINK-36648          
1 67825C 26033E   26104.62895833 -.00019034  00000+0 -68944-3 0  1049
2 67825  43.0030  63.7063 0001469 269.4827 128.2752 15.27586174    17
STARLINK-35865          
1 67826C 26033F   26104.57340278 -.00033831  00000+0 -12255-2 0  1046
2 67826  43.0014  64.3662 0001133 263.1025  47.2189 15.27591716    13
STARLINK-36289          
1 67827C 26033G   26104.57965278 -.00032669  00000+0 -11828-2 0  1043
2 67827  43.0042  64.7190 0001679 249.5565 299.5372 15.27607986    10
STARLINK-36670          
1 67828C 26033H   26104.62409722 -.00020785  00000+0 -75289-3 0  1045
2 67828  43.0042  64.4124 0001403 269.0565 186.0114 15.27586956    14
STARLINK-36144          
1 67829C 26033J   26104.60187500 -.00029402  00000+0 -10648-2 0  1043
2 67829  43.0026  64.4698 0001345 248.7654 112.2369 15.27597940    19
STARLINK-36611          
1 67830C 26033K   26104.58243056 -.00029700  00000+0 -10756-2 0  1042
2 67830  43.0032  64.8158 0001863 295.0744 219.8330 15.27597766    11
STARLINK-36661          
1 67831C 26033L   26104.64145833 -.00017260  00000+0 -62498-3 0  1043
2 67831  43.0039  64.4398 0001158 267.3772 233.7435 15.27596939    13
STARLINK-36662          
1 67832C 26033M   26104.62687500 -.00016803  00000+0 -60856-3 0  1042
2 67832  43.0010  57.0755 0000984 260.6108 317.7374 15.27589539    16
STARLINK-36659          
1 67833C 26033N   26104.58312500 -.00027691  00000+0 -10036-2 0  1044
2 67833  43.0012  64.1678 0001180 239.6416 180.8625 15.27572592    18
STARLINK-36655          
1 67834C 26033P   26104.59979167 -.00031166  00000+0 -11291-2 0  1040
2 67834  43.0027  63.8966 0001596 260.1755 329.8166 15.27585565    16
STARLINK-36657          
1 67835C 26033Q   26104.57895833 -.00026807  00000+0 -97086-3 0  1049
2 67835  43.0017  64.0915 0001436 267.3153 172.7037 15.27594499    15
STARLINK-36650          
1 67836C 26033R   26104.61437500 -.00023507  00000+0 -85088-3 0  1041
2 67836  43.0023  64.3467 0000906 265.2038 185.7914 15.27611671    18
STARLINK-36649          
1 67837C 26033S   26104.57618056 -.00032667  00000+0 -11833-2 0  1047
2 67837  43.0044  64.6964 0001510 269.9857 274.1934 15.27592025    15
STARLINK-36654          
1 67838C 26033T   26104.59770833 -.00029156  00000+0 -10560-2 0  1047
2 67838  43.0011  64.3840 0000870 262.3808 118.1421 15.27594918    12
STARLINK-36652          
1 67839C 26033U   26104.59145833 -.00029916  00000+0 -10835-2 0  1043
2 67839  43.0008  64.3717 0001179 265.1371 102.1863 15.27595565    13
STARLINK-36651          
1 67840C 26033V   26104.63381944 -.00023749  00000+0 -86015-3 0  1047
2 67840  43.0015  64.0761 0000898 259.5608   2.2269 15.27592187    13
STARLINK-36656          
1 67841C 26033W   26104.64145833 -.00018371  00000+0 -64855-3 0  1047
2 67841  43.0012  64.0209 0000795 255.0585  53.5982 15.28426283    14
STARLINK-36653          
1 67842C 26033X   26104.64770833 -.00011560  00000+0 -41875-3 0  1042
2 67842  43.0011  63.8615 0001238 252.5394 142.2115 15.27581436    10
STARLINK-36589          
1 67843C 26033Y   26104.61576389 -.00029565  00000+0 -10708-2 0  1044
2 67843  43.0012  63.9385 0001458 269.1275 352.2975 15.27593825    15
STARLINK-36598          
1 67844C 26033Z   26104.63798611 -.00017603  00000+0 -63767-3 0  1045
2 67844  43.0041  64.4185 0001520 260.3337 235.8351 15.27583164    13
STARLINK-36606          
1 67845C 26033AA  26104.61576389 -.00029387  00000+0 -10644-2 0  1047
2 67845  43.0015  63.8989 0001062 259.5767  16.0081 15.27592626    10
STARLINK-36658          
1 67846C 26033AB  26104.64076389 -.00019442  00000+0 -70420-3 0  1046
2 67846  43.0039  64.2983 0001395 265.0039 288.9105 15.27587553    19
STARLINK-36618          
1 67847C 26033AC  26104.60465278 -.00045470  00000+0 -77252-3 0  1042
2 67847  42.9998  51.9029 0001514 260.6770 158.1766 15.50598725    12
STARLINK-36660          
1 67848C 26033AD  26104.64562500 -.00018539  00000+0 -67153-3 0  1048
2 67848  43.0029  64.2360 0001238 270.7040 324.1146 15.27584929    12
STARLINK-36602          
1 67849C 26033AE  26104.56923611 -.00025936  00000+0 -93886-3 0  1045
2 67849  43.0037  64.8567 0001715 297.4536 158.8609 15.27609883    16
STARLINK-36840          
1 67850C 26034A   26104.60187500  .00016692  00000+0  54821-3 0  1045
2 67850  53.1590  37.2261 0001059 118.9327  11.8431 15.31017286    11
STARLINK-36348          
1 67851C 26034B   26104.56784722  .00012600  00000+0  42468-3 0  1049
2 67851  53.1606  37.8861 0001253  95.5507 316.3140 15.30183182    16
STARLINK-36276          
1 67852C 26034C   26104.60604167  .00024938  00000+0  81897-3 0  1045
2 67852  53.1603  37.7191 0000990 107.8189 149.8048 15.31015303    15
STARLINK-36785          
1 67853C 26034D   26104.61923611  .00040817  00000+0  13756-2 0  1047
2 67853  53.1606  37.3436 0001212  87.9167  26.8924 15.30173852    19
STARLINK-36608          
1 67854C 26034E   26104.59909722 -.00019497  00000+0 -65725-3 0  1048
2 67854  53.1597  37.2842 0001358  95.4020 344.0521 15.30195562    12
STARLINK-36838          
1 67855C 26034F   26104.59909722 -.00002148  00000+0 -70533-4 0  1048
2 67855  53.1598  37.2769 0001321  96.5342 347.1705 15.31024433    18
STARLINK-36843          
1 67856C 26034G   26104.58868056  .00005123  00000+0  17267-3 0  1040
2 67856  53.1591  37.2140 0001574  96.8642 354.9556 15.30185952    14
STARLINK-36828          
1 67857C 26034H   26104.59493056 -.00003021  00000+0 -10184-3 0  1044
2 67857  53.1588  37.1981 0001450  97.1474  11.6906 15.30186463    17
